MEAN_MOTION;ECCENTRICITY;INCLINATION;RA_OF_ASC_NODE;ARG_OF_PERICENTER;MEAN_ANOMALY;BSTAR;MEAN_MOTION_DOT;MEAN_MOTION_DDOT;TYPE
11.93123577;0.0001585;51.993;90.7996;168.9388;191.1482;0.00014855;-7.3E-7;0;Globalstar
11.93123586;0.0001584;51.993;90.1285;169.3734;190.7134;0.00015497;-7.3E-7;0;Globalstar
11.9312359;0.0001574;51.993;89.4575;169.7594;190.3273;0.00018635;-7.1E-7;0;Globalstar
11.93123587;0.0001559;51.9931;87.4442;171.1946;188.8916;0.00016994;-7.2E-7;0;Globalstar
11.93123588;0.0001538;51.9932;85.6548;172.4306;187.6552;0.00016735;-7.2E-7;0;Globalstar
11.93123616;0.0001534;51.9933;84.7599;172.9845;187.1011;0.00017824;-7.1E-7;0;Globalstar
11.9312363;0.0001542;51.9933;84.0888;173.4675;186.618;0.0001733;-7.2E-7;0;Globalstar
11.93123638;0.0001536;51.9933;82.9704;174.319;185.7663;0.00016575;-7.2E-7;0;Globalstar
11.93123678;0.0001522;51.9934;81.4046;175.3035;184.7814;0.00018197;-7.1E-7;0;Globalstar
11.93123749;0.0001478;51.9936;77.6021;177.826;182.2582;0.0002173;-6.8E-7;0;Globalstar
11.93123666;0.0001459;51.9937;76.9311;178.1171;181.9669;6.7332E-5;-7.9E-7;0;Globalstar
11.93123718;0.0001404;51.9937;74.9179;178.8325;181.2513;0.00014366;-7.4E-7;0;Globalstar
11.93123689;0.0001411;51.9937;74.2468;179.3355;180.7482;4.4601E-5;-8.1E-7;0;Globalstar
11.93123659;0.0001401;51.9939;72.2337;180.9677;179.1155;-9.6413E-5;-9.2E-7;0;Globalstar
11.93123651;0.0001401;51.9939;71.5626;181.502;178.5811;-0.00016208;-9.6E-7;0;Globalstar
11.93123643;0.0001394;51.994;69.7731;182.9104;177.1723;-0.00021096;-1.0E-6;0;Globalstar
11.93123637;0.0001388;51.994;68.8784;183.4224;176.6602;-0.00023518;-1.02E-6;0;Globalstar
11.9312365;0.0001367;51.9942;65.9705;185.488;174.594;-0.00016252;-9.6E-7;0;Globalstar
11.93123634;0.0001342;51.9944;63.2863;187.3455;172.736;-8.4182E-5;-9.1E-7;0;Globalstar
11.93123631;0.0001319;51.9946;60.3785;189.9962;170.0846;-2.0993E-5;-8.6E-7;0;Globalstar
11.93123636;0.0001309;51.9947;58.8127;191.2171;168.8635;-1.0292E-5;-8.5E-7;0;Globalstar
11.93123732;0.0001311;51.9948;57.6944;192.1397;167.9406;0.0001187;-7.6E-7;0;Globalstar
11.93123805;0.0001299;51.9951;55.0102;194.0227;166.0571;0.00019197;-7.0E-7;0;Globalstar
11.93123854;0.0001273;51.9954;52.3262;195.6682;164.4114;0.00021809;-6.8E-7;0;Globalstar
11.93123884;0.0001245;51.9957;48.3002;198.4542;161.6248;0.00019136;-7.0E-7;0;Globalstar
11.93123869;0.0001242;51.9957;48.0765;198.4645;161.6145;0.00015808;-7.3E-7;0;Globalstar
11.93123869;0.0001236;51.9957;47.1819;199.0502;161.0287;0.00015469;-7.3E-7;0;Globalstar
11.93123878;0.0001221;51.9959;44.9452;200.8158;159.2627;8.9508E-5;-7.8E-7;0;Globalstar
11.93123932;0.0001205;51.996;42.9323;202.133;157.9453;8.4542E-5;-7.8E-7;0;Globalstar
11.93123947;0.0001187;51.996;41.814;202.4719;157.6064;6.8298E-5;-7.9E-7;0;Globalstar
11.93124013;0.0001161;51.9962;39.1301;204.2668;155.8112;9.0911E-5;-7.8E-7;0;Globalstar
11.93124066;0.0001139;51.9963;36.6698;205.9266;154.1512;0.00014836;-7.3E-7;0;Globalstar
11.9312413;0.0001114;51.9965;34.2096;208.0022;152.0753;0.0002324;-6.7E-7;0;Globalstar
11.93124138;0.0001111;51.9965;33.9859;208.1339;151.9435;0.00023986;-6.7E-7;0;Globalstar
11.9312419;0.0001095;51.9966;31.7493;210.216;149.8611;0.00027705;-6.4E-7;0;Globalstar
11.93124294;0.0001066;51.9967;28.8418;212.4264;147.6505;0.00032018;-6.1E-7;0;Globalstar
11.93124363;0.0001068;51.9967;26.8288;214.8192;145.2573;0.00030355;-6.2E-7;0;Globalstar
11.9312445;0.0001043;51.9969;26.1579;213.8723;146.2045;0.00037419;-5.7E-7;0;Globalstar
11.93124534;0.0001037;51.9971;24.145;215.7943;144.2822;0.00037607;-5.6E-7;0;Globalstar
11.93124581;0.0001026;51.9971;23.474;216.0176;144.0589;0.00042176;-5.3E-7;0;Globalstar
11.93124651;0.0001017;51.9972;21.4611;217.9428;142.1335;0.00040948;-5.4E-7;0;Globalstar
11.9312471;0.0001001;51.9973;18.7773;220.6761;139.3999;0.00036281;-5.7E-7;0;Globalstar
11.931248;9.84E-5;51.9973;18.1064;220.5691;139.5071;0.00043384;-5.2E-7;0;Globalstar
11.93124871;9.73E-5;51.9974;16.0935;222.0116;138.0645;0.00036026;-5.8E-7;0;Globalstar
11.93125025;9.68E-5;51.9972;14.528;222.6111;137.4649;0.00040856;-5.4E-7;0;Globalstar
11.93125093;9.59E-5;51.9971;13.4097;223.1303;136.9457;0.00038919;-5.6E-7;0;Globalstar
11.93125301;9.43E-5;51.997;10.9495;223.6645;136.4115;0.00043616;-5.2E-7;0;Globalstar
11.93125313;9.39E-5;51.997;10.7258;223.8349;136.2411;0.00045219;-5.1E-7;0;Globalstar
11.93125507;9.19E-5;51.997;8.2656;225.9596;134.1164;0.00056967;-4.2E-7;0;Globalstar
11.93125748;9.12E-5;51.9969;5.5816;227.8102;132.2656;0.00076031;-2.8E-7;0;Globalstar
11.93125785;8.93E-5;51.9968;2.8976;229.1056;130.9701;0.00060636;-3.9E-7;0;Globalstar
11.93125904;8.82E-5;51.9968;1.1083;230.0039;130.0718;0.00065291;-3.6E-7;0;Globalstar
11.93126018;8.62E-5;51.9967;359.5427;230.6216;129.4542;0.00065694;-3.6E-7;0;Globalstar
11.93126184;8.52E-5;51.9967;357.5297;231.516;128.5598;0.00068915;-3.3E-7;0;Globalstar
11.93126225;8.36E-5;51.9966;356.1878;232.3523;127.7236;0.00061514;-3.9E-7;0;Globalstar
11.93126353;8.35E-5;51.9966;354.8458;232.9831;127.0928;0.0006956;-3.3E-7;0;Globalstar
11.93126461;8.27E-5;51.9966;353.2802;234.2257;125.8501;0.0007278;-3.0E-7;0;Globalstar
11.93126549;8.16E-5;51.9965;352.3855;234.4726;125.6033;0.00076035;-2.8E-7;0;Globalstar
11.93126654;8.07E-5;51.9964;350.5963;235.4512;124.6246;0.00076933;-2.7E-7;0;Globalstar
11.93126684;7.97E-5;51.9964;349.7017;236.1288;123.947;0.00071024;-3.2E-7;0;Globalstar
11.93126772;7.87E-5;51.9963;347.9124;237.321;122.7549;0.00066333;-3.5E-7;0;Globalstar
11.93126779;7.87E-5;51.9963;347.6887;237.3659;122.71;0.00064765;-3.6E-7;0;Globalstar
11.93126807;7.8E-5;51.9962;346.7941;237.9616;122.1143;0.00058237;-4.1E-7;0;Globalstar
11.93126829;7.76E-5;51.9962;346.3468;238.1692;121.9068;0.00056301;-4.3E-7;0;Globalstar
11.93126932;7.65E-5;51.9961;344.3338;239.1793;120.8967;0.00047646;-4.9E-7;0;Globalstar
11.93126954;7.59E-5;51.996;343.6628;239.6195;120.4564;0.00045761;-5.0E-7;0;Globalstar
11.93127019;7.53E-5;51.9959;341.6498;240.7661;119.3098;0.00040335;-5.4E-7;0;Globalstar
11.93127034;7.5E-5;51.9959;341.4262;241.0232;119.0528;0.00041891;-5.3E-7;0;Globalstar
11.93127172;7.42E-5;51.9957;338.7421;242.2412;117.8348;0.00050164;-4.7E-7;0;Globalstar
11.93127187;7.4E-5;51.9957;338.2948;242.5307;117.5452;0.0005012;-4.7E-7;0;Globalstar
11.93127267;7.35E-5;51.9956;336.5054;243.6664;116.4096;0.00056263;-4.3E-7;0;Globalstar
11.9312728;7.26E-5;51.9955;334.9397;245.0535;115.0224;0.00052228;-4.6E-7;0;Globalstar
11.93127304;7.24E-5;51.9954;333.5976;245.8824;114.1935;0.00052462;-4.5E-7;0;Globalstar
11.93127322;7.22E-5;51.9953;332.0318;246.8518;113.2241;0.00048283;-4.9E-7;0;Globalstar
11.93127352;7.17E-5;51.9953;330.9134;247.4358;112.6401;0.00046888;-5.0E-7;0;Globalstar
11.93127389;7.15E-5;51.9952;329.3477;248.2991;111.7767;0.00044907;-5.1E-7;0;Globalstar
11.93127419;7.11E-5;51.9951;328.2293;248.5378;111.5381;0.0004403;-5.2E-7;0;Globalstar
11.93127449;7.08E-5;51.9951;326.6636;249.7127;110.3632;0.00042269;-5.3E-7;0;Globalstar
11.93127459;7.03E-5;51.995;325.5452;250.9872;109.0886;0.00040643;-5.4E-7;0;Globalstar
11.93127452;7.03E-5;51.995;325.0978;250.9632;109.1126;0.00035004;-5.8E-7;0;Globalstar
11.93127369;7.03E-5;51.995;323.3084;251.2261;108.8498;0.00013169;-7.5E-7;0;Globalstar
11.93127449;6.98E-5;51.9949;321.0716;253.342;106.7338;0.00023559;-6.7E-7;0;Globalstar
11.93127427;6.98E-5;51.9949;320.6242;253.2519;106.8239;0.00017934;-7.1E-7;0;Globalstar
11.93127423;6.95E-5;51.9948;320.1769;253.6397;106.4361;0.00017352;-7.2E-7;0;Globalstar
11.93127382;6.94E-5;51.9948;318.3875;255.1522;104.9236;8.6664E-6;-8.4E-7;0;Globalstar
11.93127396;6.94E-5;51.9947;317.7164;255.2156;104.8602;3.5016E-5;-8.2E-7;0;Globalstar
11.93127266;7.12E-5;51.9948;315.0321;257.0525;103.023;-0.00010344;-9.2E-7;0;Globalstar
11.93127238;7.11E-5;51.9948;314.8084;257.2026;102.8729;-0.00017939;-9.8E-7;0;Globalstar
11.93127227;7.09E-5;51.9947;312.3479;258.7553;101.3202;-0.00016088;-9.6E-7;0;Globalstar
11.93127176;7.13E-5;51.9946;309.6637;260.0433;100.0322;-0.00022931;-1.01E-6;0;Globalstar
11.93127183;7.12E-5;51.9946;309.4401;260.3265;99.7489;-0.00021986;-1.01E-6;0;Globalstar
11.93127122;7.15E-5;51.9946;306.9796;262.2038;97.8715;-0.00025085;-1.03E-6;0;Globalstar
11.93127086;7.17E-5;51.9945;304.7428;263.7158;96.3595;-0.00029049;-1.06E-6;0;Globalstar
11.93127081;7.18E-5;51.9945;304.0717;264.2914;95.7839;-0.0002909;-1.06E-6;0;Globalstar
11.93126962;7.18E-5;51.9944;301.3876;267.2035;92.8717;-0.00033552;-1.09E-6;0;Globalstar
11.93126947;7.24E-5;51.9944;300.7166;266.9055;93.1697;-0.00035867;-1.11E-6;0;Globalstar
11.93126875;7.22E-5;51.9944;299.5981;268.0495;92.0257;-0.00040725;-1.15E-6;0;Globalstar
11.93126865;7.23E-5;51.9944;299.1508;268.4186;91.6566;-0.00040254;-1.14E-6;0;Globalstar
11.93126868;7.25E-5;51.9944;298.0323;268.9712;91.104;-0.00037793;-1.12E-6;0;Globalstar
11.93126803;7.2E-5;51.9943;296.9139;270.0308;90.0444;-0.00041829;-1.15E-6;0;Globalstar
11.93126778;7.23E-5;51.9944;296.4666;270.3995;89.6756;-0.00042966;-1.16E-6;0;Globalstar
11.9312669;7.26E-5;51.9943;294.6772;271.8223;88.2528;-0.00044381;-1.17E-6;0;Globalstar
11.93126689;7.27E-5;51.9943;294.2298;272.2546;87.8206;-0.00043222;-1.16E-6;0;Globalstar
11.93126633;7.36E-5;51.9943;291.993;273.1956;86.8794;-0.00042919;-1.16E-6;0;Globalstar
11.931265;7.42E-5;51.9943;289.5326;274.8382;85.2368;-0.00044242;-1.17E-6;0;Globalstar
11.93126348;7.46E-5;51.9942;286.401;277.742;82.333;-0.00045914;-1.18E-6;0;Globalstar
11.9312622;7.57E-5;51.9943;283.046;281.217;78.858;-0.000418;-1.15E-6;0;Globalstar
11.93126212;7.54E-5;51.9943;282.8223;281.1083;78.9667;-0.00042047;-1.16E-6;0;Globalstar
11.93126113;7.61E-5;51.9943;280.5855;283.1743;76.9007;-0.00043424;-1.17E-6;0;Globalstar
11.93126037;7.69E-5;51.9943;279.4672;283.9946;76.0803;-0.00045239;-1.18E-6;0;Globalstar
11.93125943;7.68E-5;51.9943;278.3487;284.1607;75.9142;-0.00049615;-1.21E-6;0;Globalstar
11.93125903;7.75E-5;51.9943;276.7831;285.3396;74.7353;-0.00046232;-1.19E-6;0;Globalstar
11.93125842;7.79E-5;51.9943;275.6648;286.7713;73.3036;-0.00048638;-1.21E-6;0;Globalstar
